#dP2024  9 22  6  0  0.00000000      96 __u+U IGS20 EXT  IAC
## 2333  21600.00000000   900.00000000 60575 0.2500000000000
+   54   G01G02G03G04G05G06G07G08G09G10G11G12G13G14G15G16G17
+        G18G19G20G21G22G23G24G25G26G27G28G29G30G31G32R01R02
+        R03R04R05R07R08R09R11R12R14R15R16R17R18R19R20R21R22
+        R24R25R26  0  0  0  0  0  0  0  0  0  0  0  0  0  0
+          0  0  0  0  0  0  0  0  0  0  0  0  0  0  0  0  0
++         0  9  8  9  8  8  8  9  9  8  8  9  8  8  8  9  8
++         8  9  8  8  8  8  9  9  8  9 11  8  8  9  9  9  9
++         8  8  8  9  8  9 10  9  9  9  9  9 10  9  8  8 10
++        10  9  8  0  0  0  0  0  0  0  0  0  0  0  0  0  0
++         0  0  0  0  0  0  0  0  0  0  0  0  0  0  0  0  0
%c M  cc GPS ccc cccc cccc cccc cccc ccccc ccccc ccccc ccccc
%c cc cc ccc ccc cccc cccc cccc cccc ccccc ccccc ccccc ccccc
%f  0.0000000  0.000000000  0.00000000000  0.000000000000000
%f  0.0000000  0.000000000  0.00000000000  0.000000000000000
%i    0    0    0    0      0      0      0      0         0
%i    0    0    0    0      0      0      0      0         0
/* IAC                                ULTRA-RAPID PREDICTION
/* S/V CLOCKS ARE ALIGNED TO GNSS TIME                      
/* G:C1WC2W R:C1PC2P E:C1XC5X C:C2IC6I J:C1CC2S             
/* PCV:IGS20_2317 OL/AL:FES2004  NONE     YN ORB:CoN CLK:CoN
*  2024 09 23  0  0  0.00000000
PG01  16402.430444  -2185.845027  20465.428161    190.500565
PG02  -4431.605859 -14229.724718 -21524.462067   -352.415974
PG03 -12064.846724 -22946.623185  -6203.398815    546.955278
PG04  -2416.460870 -21028.012024  15968.406893    448.658388
PG05   -506.967451  18938.348482  18403.900508   -187.473514
PG06 -25842.866323   5242.827044   3703.550151     12.305839
PG07 -21200.245989  -7975.184348  14757.195958    -34.802120
PG08   5136.814836 -25186.938753  -5812.870007    361.493626
PG09 -10897.438648 -12194.882740  20822.019724    367.912214
PG10  18264.888084   3443.290020 -18892.537058   -134.088822
PG11 -16758.870542  12592.289884  16304.084608   -737.431468
PG12   7825.686858  23765.511455  -9255.690872   -540.016278
PG13 -13659.682566  22623.729280     46.317467    677.896245
PG14 -19715.417847  -6989.527017 -16452.724673    501.603679
PG15  -1466.084712  25748.149034  -6492.632638    207.388365
PG16   6484.542488 -15788.205207  19889.885444   -173.856036
PG17 -17245.760420   4937.573085 -19225.323844    618.668827
PG18  21736.954923   7072.315135  13738.408471   -654.808586
PG19 -18324.488072  12241.217412 -14662.834832    541.509053
PG20  -9814.728639  11840.680691  21725.865758    370.371702
PG21   1559.100850 -15382.866025 -21045.627293    101.224645
PG22 -16284.362753    983.201292 -20489.751489    -64.454250
PG23  20021.577204  14811.990416  -9513.818000    326.074891
PG24   2478.159367  15821.143168 -21623.448947   -486.399233
PG25  17222.237474  20339.983808   1322.399387    499.628797
PG26  15420.696886  -5907.049034  20698.541273     72.805970
PG27  12598.314638 -22659.387929   4312.512708    -33.918658
PG28  26079.349094  -4908.264942   1152.546508   -420.860091
PG29   7890.850042  15106.351038  20296.222737   -576.107192
PG30 -26196.005719   -627.741829   5285.629498   -316.232943
PG31  21000.336863 -10864.174132  12243.607237   -224.359892
PG32  17017.432912  -6632.972428 -18996.266702   -594.516294
PR01    275.678687 -25509.658756   -268.500981     98.654904
PR02  -6491.435684 -18935.600678  15803.049208    -24.790626
PR03 -10774.717005  -1506.808621  23109.311948    108.074695
PR04  -8931.397383  16049.433287  17732.640000    255.948300
PR05  -2550.890540  25234.091603   2866.399036    138.056281
PR07  10767.833844   1030.044830 -23068.010642     91.435324
PR08   8771.823303 -16320.699645 -17458.116950     -6.416315
PR09  18801.077717  15307.648770  -7770.789523    210.654459
PR11  14571.721048  -2670.841894  20772.104287     11.132891
PR12  -3667.543393 -14078.397003  20976.598282     45.152773
PR14 -22293.103235  -8186.875192  -9323.238756     26.952510
PR15 -13327.146321   3860.946034 -21384.215169     75.599165
PR16   3602.553276  13860.090343 -21086.857254     29.357165
PR17 -21593.460945   4749.161085 -12662.958864    124.380412
PR18 -21809.923966  12817.701578   3442.280250    163.369716
PR19 -12944.727626  14308.580742  16678.773990   -292.348492
PR20   8243.779614   7477.537614  22960.444583   -119.489831
PR21  21378.372916  -4151.702952  13316.613114   -136.742745
PR22  21622.990856 -12734.556558  -4539.424648     40.277744
PR24  -9294.777150  -7190.261274 -22615.977314    -73.119132
PR25  22012.915361  -4027.955203  12277.535273    -98.259744
PR26   9107.133162 -15009.116009 -18498.480129     38.236039
*  2024 09 23  0 15  0.00000000
PG01  17783.464282   -277.175161  19449.225929    190.492001
PG02  -1941.104411 -14825.192107 -21462.874747   -352.408779
PG03 -11413.189209 -22391.748082  -8928.016584    546.966997
PG04  -1577.989133 -22529.374408  13874.891130    448.664709
PG05  -2070.027613  17358.200086  19792.662830   -187.474578
PG06 -26112.578381   5116.802232    812.502606     12.282011
PG07 -19544.221282  -8396.305752  16709.303089    -34.798380
PG08   5591.458675 -25558.884546  -3011.866547    361.504995
PG09 -10023.632152 -14375.969773  19845.657423    367.926815
PG10  19503.869678   5129.294501 -17246.761773   -134.100138
PG11 -18511.835910  12611.376853  14254.949116   -737.434946
PG12   6982.842832  22935.072263 -11758.345228   -540.018751
PG13 -13775.543193  22334.259466   2931.919561    677.898053
PG14 -20645.391309  -8513.270398 -14503.160999    501.611348
PG15  -1892.976690  26202.526972  -3758.785383    207.392367
PG16   7920.777264 -13851.919662  20816.161843   -173.846947
PG17 -16362.017430   2765.739468 -20358.704375    618.658249
PG18  20093.806902   7447.845480  15859.847943   -654.810388
PG19 -17682.131594  10567.682515 -16675.374296    541.513439
PG20 -11673.754675  10218.469232  21616.198419    370.371395
PG21   3980.367774 -15880.057764 -20264.602042    101.223976
PG22 -17512.720426  -1052.378758 -19440.880356    -64.457539
PG23  20499.290568  15629.391424  -6837.080500    326.082419
PG24    167.053416  16374.437065 -21307.957197   -486.398760
PG25  17035.229088  20532.364527  -1495.977389    499.628786
PG26  16994.668261  -4146.633101  19918.659267     72.798114
PG27  12621.463721 -21909.518856   7089.812425    -33.918773
PG28  26096.950187  -4654.621041  -1704.880263   -420.872356
PG29   6826.958082  17103.955380  19050.533298   -576.104951
PG30 -25514.087008  -1027.991989   7939.339798   -316.226445
PG31  22300.210701 -10824.101170   9817.356096   -224.359461
PG32  16329.414299  -4445.156445 -20204.612001   -594.512816
PR01    133.936932 -25275.903175  -3469.688976     98.655954
PR02  -6599.408006 -20729.603587  13296.887839    -24.790806
PR03 -10785.286927  -4327.305101  22739.500865    108.075395
PR04  -8794.050053  13749.191044  19632.716343    255.949887
PR05  -2362.772541  24688.423838   6031.890403    138.056773
PR07  10775.133657   3867.163221 -22766.556947     91.436010
PR08   8668.360922 -14034.269205 -19388.402036     -6.416354
PR09  17829.503751  14699.428339 -10687.759931    210.656420
PR11  16752.038352  -1522.635948  19180.717153     11.131927
PR12  -1390.031511 -12721.502574  22090.688359     45.153151
PR14 -23190.623530  -8562.175454  -6319.337605     26.952528
PR15 -15574.271235   2637.105525 -20009.559867     75.598867
PR16   1302.049846  12496.172135 -22180.772515     29.357445
PR17 -20017.462414   4026.823842 -15242.120359    124.383434
PR18 -21906.437483  13106.001994    216.457173    163.371395
PR19 -14574.249114  15321.866817  14257.099700   -292.349805
PR20   5687.448629   8749.958666  23286.506757   -119.490313
PR21  19728.448772  -3418.259856  15831.333877   -136.745702
PR22  21881.507851 -13033.830705  -1353.344060     40.269046
PR24  -6832.588518  -8567.422648 -23012.559413    -73.120566
PR25  20471.917132  -3366.307957  14868.492306    -98.257247
PR26   9023.620345 -12615.064147 -20241.845920     38.252337
EOF
